ONEWEB-0264             
1 48982U 21060R   23359.59223595  .00001372  00000+0  35564-2 0  9999
2 48982  87.9076  48.8282 0001744  99.4805 260.6523 13.16587546120567
ONEWEB-0266             
1 48984U 21060T   23359.53841516  .00000060  00000+0  12444-3 0  9990
2 48984  87.9071  48.8217 0001896  97.0147 263.1200 13.16597766120546
ONEWEB-0267             
1 48985U 21060U   23359.54895072 -.00000051  00000+0 -16688-3 0  9994
2 48985  87.9070  48.8211 0001669 112.8229 247.3078 13.16594188120558
ONEWEB-0268             
1 48986U 21060V   23359.59329174  .00000135  00000+0  31896-3 0  9994
2 48986  87.9072  48.8161 0001644 103.7832 256.3482 13.16591514120826
ONEWEB-0269             
1 48987U 21060W   23359.57427353 -.00000236  00000+0 -65077-3 0  9993
2 48987  87.9063  48.8440 0001722  97.5710 262.5617 13.16593605120595
ONEWEB-0270             
1 48988U 21060X   23359.59116369  .00000122  00000+0  28519-3 0  9990
2 48988  87.9069  48.8278 0002226 116.4763 243.6596 13.16597132120630
ONEWEB-0271             
1 48989U 21060Y   23359.57851717  .00000071  00000+0  15239-3 0  9990
2 48989  87.9066  48.8052 0001834 115.8007 244.3313 13.16596184120637
ONEWEB-0272             
1 48990U 21060Z   23359.60172854  .00000037  00000+0  63749-4 0  9996
2 48990  87.9073  48.8279 0001817 111.9546 248.1778 13.16594228120582
